{"type": "FeatureCollection", "features": [ {"type": "Feature", "properties": {"norad_id": 37966, "name": "COSMOS 2251 DEB", "group": "cosmos-2251-debris", "lat": -32.12397482075438, "lon": -139.76604673290876, "alt_km": 538.8725489982835, "timestamp": "2025-12-12T16:50:33.544386+00:00", "meta": {"OBJECT_NAME": "COSMOS 2251 DEB", "OBJECT_ID": "1993-036BPR", "EPOCH": "2025-12-09T09:36:29.677536", "MEAN_MOTION": 15.12084932, "ECCENTRICITY": 0.0008975, "INCLINATION": 73.977, "RA_OF_ASC_NODE": 237.4896, "ARG_OF_PERICENTER": 112.4769, "MEAN_ANOMALY": 247.7375, "EPHEMERIS_TYPE": 0, "CLASSIFICATION_TYPE": "U", "NORAD_CAT_ID": 37966, "ELEMENT_SET_NO": 999, "REV_AT_EPOCH": 85292, "BSTAR": 0.003976161, "MEAN_MOTION_DOT": 0.00069139, "MEAN_MOTION_DDOT": 0}, "tle": {"line1": "1 37966U 93036BPR 25343.40034349  .00069139  00000+0  39762-2 0  9992", "line2": "2 37966  73.9770 237.4896 0008975 112.4769 247.7375 15.12084932852920"}}, "geometry": {"type": "Point", "coordinates": [-139.76604673290876, -32.12397482075438]}}, {"type": "Feature", "properties": {"norad_id": 37967, "name": "COSMOS 2251 DEB", "group": "cosmos-2251-debris", "lat": 5.871127977001619, "lon": 139.14424337923404, "alt_km": 757.04346438617, "timestamp": "2025-12-12T16:50:33.544398+00:00", "meta": {"OBJECT_NAME": "COSMOS 2251 DEB", "OBJECT_ID": "1993-036BPS", "EPOCH": "2025-12-10T16:28:42.146688", "MEAN_MOTION": 14.4047963, "ECCENTRICITY": 0.01508864, "INCLINATION": 74.015, "RA_OF_ASC_NODE": 141.1866, "ARG_OF_PERICENTER": 280.4085, "MEAN_ANOMALY": 78.0095, "EPHEMERIS_TYPE": 0, "CLASSIFICATION_TYPE": "U", "NORAD_CAT_ID": 37967, "ELEMENT_SET_NO": 999, "REV_AT_EPOCH": 64706, "BSTAR": 0.0023977147, "MEAN_MOTION_DOT": 8.707e-05, "MEAN_MOTION_DDOT": 0}, "tle": {"line1": "1 37967U 93036BPS 25344.68659892  .00008707  00000+0  23977-2 0  9995", "line2": "2 37967  74.0150 141.1866 0150886 280.4085  78.0095 14.40479630647063"}}, "geometry": {"type": "Point", "coordinates": [139.14424337923404, 5.871127977001619]}}, {"type": "Feature", "properties": {"norad_id": 37968, "name": "COSMOS 2251 DEB", "group": "cosmos-2251-debris", "lat": 30.135424667136757, "lon": 81.64785178646173, "alt_km": 591.9633910702169, "timestamp": "2025-12-12T16:50:33.544408+00:00", "meta": {"OBJECT_NAME": "COSMOS 2251 DEB", "OBJECT_ID": "1993-036BPT", "EPOCH": "2025-12-11T12:59:17.316096", "MEAN_MOTION": 15.00564949, "ECCENTRICITY": 0.00804869, "INCLINATION": 74.0004, "RA_OF_ASC_NODE": 273.6014, "ARG_OF_PERICENTER": 29.6293, "MEAN_ANOMALY": 330.9417, "EPHEMERIS_TYPE": 0, "CLASSIFICATION_TYPE": "U", "NORAD_CAT_ID": 37968, "ELEMENT_SET_NO": 999, "REV_AT_EPOCH": 60201, "BSTAR": 0.0015220746, "MEAN_MOTION_DOT": 0.00020602, "MEAN_MOTION_DDOT": 0}, "tle": {"line1": "1 37968U 93036BPT 25345.54117264  .00020602  00000+0  15221-2 0  9995", "line2": "2 37968  74.0004 273.6014 0080486  29.6293 330.9417 15.00564949602019"}}, "geometry": {"type": "Point", "coordinates": [81.64785178646173, 30.135424667136757]}}, {"type": "Feature", "properties": {"norad_id": 37971, "name": "COSMOS 2251 DEB", "group": "cosmos-2251-debris", "lat": 65.94840791222255, "lon": 81.84175888599162, "alt_km": 738.4887804190066, "timestamp": "2025-12-12T16:50:33.544418+00:00", "meta": {"OBJECT_NAME": "COSMOS 2251 DEB", "OBJECT_ID": "1993-036BPW", "EPOCH": "2025-12-11T10:40:32.065248", "MEAN_MOTION": 14.48615122, "ECCENTRICITY": 0.00674117, "INCLINATION": 73.9935, "RA_OF_ASC_NODE": 44.173, "ARG_OF_PERICENTER": 183.4136, "MEAN_ANOMALY": 176.6574, "EPHEMERIS_TYPE": 0, "CLASSIFICATION_TYPE": "U", "NORAD_CAT_ID": 37971, "ELEMENT_SET_NO": 999, "REV_AT_EPOCH": 60659, "BSTAR": 0.0043286348, "MEAN_MOTION_DOT": 0.00016772, "MEAN_MOTION_DDOT": 0}, "tle": {"line1": "1 37971U 93036BPW 25345.44481557  .00016772  00000+0  43286-2 0  9992", "line2": "2 37971  73.9935  44.1730 0067411 183.4136 176.6574 14.48615122606595"}}, "geometry": {"type": "Point", "coordinates": [81.84175888599162, 65.94840791222255]}}, {"type": "Feature", "properties": {"norad_id": 37975, "name": "COSMOS 2251 DEB", "group": "cosmos-2251-debris", "lat": -41.51225085491493, "lon": -50.564921093466744, "alt_km": 580.7796949050935, "timestamp": "2025-12-12T16:50:33.544428+00:00", "meta": {"OBJECT_NAME": "COSMOS 2251 DEB", "OBJECT_ID": "1993-036BQA", "EPOCH": "2025-12-11T15:00:34.783776", "MEAN_MOTION": 14.75964152, "ECCENTRICITY": 0.0096009, "INCLINATION": 74.0032, "RA_OF_ASC_NODE": 326.255, "ARG_OF_PERICENTER": 315.8702, "MEAN_ANOMALY": 43.4838, "EPHEMERIS_TYPE": 0, "CLASSIFICATION_TYPE": "U", "NORAD_CAT_ID": 37975, "ELEMENT_SET_NO": 999, "REV_AT_EPOCH": 69729, "BSTAR": 0.0059326203, "MEAN_MOTION_DOT": 0.00044255, "MEAN_MOTION_DDOT": 0}, "tle": {"line1": "1 37975U 93036BQA 25345.62540259  .00044255  00000+0  59326-2 0  9990", "line2": "2 37975  74.0032 326.2550 0096009 315.8702  43.4838 14.75964152697299"}}, "geometry": {"type": "Point", "coordinates": [-50.564921093466744, -41.51225085491493]}}, {"type": "Feature", "properties": {"norad_id": 37978, "name": "COSMOS 2251 DEB", "group": "cosmos-2251-debris", "lat": 67.72295676470311, "lon": -135.25533571672347, "alt_km": 288.0795526151778, "timestamp": "2025-12-12T16:50:33.544439+00:00", "meta": {"OBJECT_NAME": "COSMOS 2251 DEB", "OBJECT_ID": "1993-036BQD", "EPOCH": "2025-11-19T05:08:53.100672", "MEAN_MOTION": 15.61137081, "ECCENTRICITY": 0.00148985, "INCLINATION": 74.0238, "RA_OF_ASC_NODE": 142.2198, "ARG_OF_PERICENTER": 140.9849, "MEAN_ANOMALY": 219.2448, "EPHEMERIS_TYPE": 0, "CLASSIFICATION_TYPE": "U", "NORAD_CAT_ID": 37978, "ELEMENT_SET_NO": 999, "REV_AT_EPOCH": 8032, "BSTAR": 0.0043958825, "MEAN_MOTION_DOT": 0.0039117, "MEAN_MOTION_DDOT": 0}, "tle": {"line1": "1 37978U 93036BQD 25323.21450348  .00391170  00000+0  43959-2 0  9999", "line2": "2 37978  74.0238 142.2198 0014898 140.9849 219.2448 15.61137081 80328"}}, "geometry": {"type": "Point", "coordinates": [-135.25533571672347, 67.72295676470311]}}, {"type": "Feature", "properties": {"norad_id": 37985, "name": "COSMOS 2251 DEB", "group": "cosmos-2251-debris", "lat": 27.81845292436341, "lon": -85.49932859908107, "alt_km": 757.0869425815954, "timestamp": "2025-12-12T16:50:33.544449+00:00", "meta": {"OBJECT_NAME": "COSMOS 2251 DEB", "OBJECT_ID": "1993-036BQL", "EPOCH": "2025-12-10T12:51:29.994048", "MEAN_MOTION": 14.35481838, "ECCENTRICITY": 0.0020726, "INCLINATION": 74.0254, "RA_OF_ASC_NODE": 269.7813, "ARG_OF_PERICENTER": 33.1877, "MEAN_ANOMALY": 327.0571, "EPHEMERIS_TYPE": 0, "CLASSIFICATION_TYPE": "U", "NORAD_CAT_ID": 37985, "ELEMENT_SET_NO": 999, "REV_AT_EPOCH": 64885, "BSTAR": 9.1575e-05, "MEAN_MOTION_DOT": 2.38e-06, "MEAN_MOTION_DDOT": 0}, "tle": {"line1": "1 37985U 93036BQL 25344.53576382  .00000238  00000+0  91575-4 0  9993", "line2": "2 37985  74.0254 269.7813 0020726  33.1877 327.0571 14.35481838648859"}}, "geometry": {"type": "Point", "coordinates": [-85.49932859908107, 27.81845292436341]}}, {"type": "Feature", "properties": {"norad_id": 37988, "name": "COSMOS 2251 DEB", "group": "cosmos-2251-debris", "lat": 24.399850932238852, "lon": 31.545145753676678, "alt_km": 627.6507451702419, "timestamp": "2025-12-12T16:50:33.544460+00:00", "meta": {"OBJECT_NAME": "COSMOS 2251 DEB", "OBJECT_ID": "1993-036BQP", "EPOCH": "2025-12-11T12:56:23.685792", "MEAN_MOTION": 14.6884503, "ECCENTRICITY": 0.0063225, "INCLINATION": 74.0638, "RA_OF_ASC_NODE": 26.3433, "ARG_OF_PERICENTER": 64.1894, "MEAN_ANOMALY": 296.578, "EPHEMERIS_TYPE": 0, "CLASSIFICATION_TYPE": "U", "NORAD_CAT_ID": 37988, "ELEMENT_SET_NO": 999, "REV_AT_EPOCH": 23378, "BSTAR": 0.0012641072, "MEAN_MOTION_DOT": 7.59e-05, "MEAN_MOTION_DDOT": 0}, "tle": {"line1": "1 37988U 93036BQP 25345.53916303  .00007590  00000+0  12641-2 0  9991", "line2": "2 37988  74.0638  26.3433 0063225  64.1894 296.5780 14.68845030233785"}}, "geometry": {"type": "Point", "coordinates": [31.545145753676678, 24.399850932238852]}}, {"type": "Feature", "properties": {"norad_id": 37993, "name": "COSMOS 2251 DEB", "group": "cosmos-2251-debris", "lat": 14.809753517451744, "lon": -17.355825433797836, "alt_km": 694.1265788617538, "timestamp": "2025-12-12T16:50:33.544470+00:00", "meta": {"OBJECT_NAME": "COSMOS 2251 DEB", "OBJECT_ID": "1993-036BQU", "EPOCH": "2025-12-09T05:51:24.736320", "MEAN_MOTION": 14.59845478, "ECCENTRICITY": 0.0022054, "INCLINATION": 74.0217, "RA_OF_ASC_NODE": 173.5884, "ARG_OF_PERICENTER": 262.4751, "MEAN_ANOMALY": 97.3909, "EPHEMERIS_TYPE": 0, "CLASSIFICATION_TYPE": "U", "NORAD_CAT_ID": 37993, "ELEMENT_SET_NO": 999, "REV_AT_EPOCH": 65266, "BSTAR": 0.0017274, "MEAN_MOTION_DOT": 8.27e-05, "MEAN_MOTION_DDOT": 0}, "tle": {"line1": "1 37993U 93036BQU 25343.24403630  .00008270  00000+0  17274-2 0  9990", "line2": "2 37993  74.0217 173.5884 0022054 262.4751  97.3909 14.59845478652667"}}, "geometry": {"type": "Point", "coordinates": [-17.355825433797836, 14.809753517451744]}}, {"type": "Feature", "properties": {"norad_id": 37994, "name": "COSMOS 2251 DEB", "group": "cosmos-2251-debris", "lat": -68.0851340827571, "lon": 141.118187702733, "alt_km": 769.5692186383994, "timestamp": "2025-12-12T16:50:33.544480+00:00", "meta": {"OBJECT_NAME": "COSMOS 2251 DEB", "OBJECT_ID": "1993-036BQV", "EPOCH": "2025-12-12T07:19:21.999936", "MEAN_MOTION": 14.39622049, "ECCENTRICITY": 0.00229022, "INCLINATION": 74.0362, "RA_OF_ASC_NODE": 276.4909, "ARG_OF_PERICENTER": 356.0055, "MEAN_ANOMALY": 4.0913, "EPHEMERIS_TYPE": 0, "CLASSIFICATION_TYPE": "U", "NORAD_CAT_ID": 37994, "ELEMENT_SET_NO": 999, "REV_AT_EPOCH": 77058, "BSTAR": 0.00058148718, "MEAN_MOTION_DOT": 1.797e-05, "MEAN_MOTION_DDOT": 0}, "tle": {"line1": "1 37994U 93036BQV 25346.30511574  .00001797  00000+0  58149-3 0  9992", "line2": "2 37994  74.0362 276.4909 0022902 356.0055   4.0913 14.39622049770586"}}, "geometry": {"type": "Point", "coordinates": [141.118187702733, -68.0851340827571]}}]}